start=new Date('2022-10-22T00:00:00.000Z').valueOf();
sats=[{"OBJECT_NAME":"STARLINK-3843","ARG_OF_PERICENTER":"23.0601","TLE_LINE1":"1 52341U 22045L   22294.58393294 -.00000216  00000-0  45628-5 0  9990","MEAN_ANOMALY":"337.0530","BSTAR":"0.00000456280000","MEAN_ELEMENT_THEORY":"SGP4","PERIOD":"95.438","DECAY_DATE":null,"APOAPSIS":"541.910","RCS_SIZE":"LARGE","EPHEMERIS_TYPE":"0","REF_FRAME":"TEME","RA_OF_ASC_NODE":"353.7378","OBJECT_TYPE":"PAYLOAD","GP_ID":"215845327","FILE":"3628413","CLASSIFICATION_TYPE":"U","EPOCH":"2022-10-21T14:00:51.806016","MEAN_MOTION_DDOT":"0.0000000000000","LAUNCH_DATE":"2022-04-29","COUNTRY_CODE":"US","OBJECT_ID":"2022-045L","INCLINATION":"53.2193","SITE":"AFETR","ECCENTRICITY":"0.00031160","NORAD_CAT_ID":"52341","ELEMENT_SET_NO":"999","CENTER_NAME":"EARTH","TLE_LINE2":"2 52341  53.2193 353.7378 0003116  23.0601 337.0530 15.08836970 29187","REV_AT_EPOCH":"2918","PERIAPSIS":"537.599","MEAN_MOTION":"15.08836970","SEMIMAJOR_AXIS":"6917.890","TIME_SYSTEM":"UTC","MEAN_MOTION_DOT":"-0.00000216"},{"COUNTRY_CODE":"US","LAUNCH_DATE":"2022-04-29","OBJECT_ID":"2022-045M","INCLINATION":"53.2186","NORAD_CAT_ID":"52342","ELEMENT_SET_NO":"999","SITE":"AFETR","ECCENTRICITY":"0.00025340","CENTER_NAME":"EARTH","TLE_LINE2":"2 52342  53.2186 343.9363 0002534  28.5754 331.5376 15.08840584 29315","REV_AT_EPOCH":"2931","PERIAPSIS":"537.991","MEAN_MOTION":"15.08840584","SEMIMAJOR_AXIS":"6917.879","TIME_SYSTEM":"UTC","MEAN_MOTION_DOT":"0.00000980","ARG_OF_PERICENTER":"28.5754","OBJECT_NAME":"STARLINK-3850","MEAN_ANOMALY":"331.5376","TLE_LINE1":"1 52342U 22045M   22294.53606343  .00000980  00000-0  79669-4 0  9996","BSTAR":"0.00007966900000","MEAN_ELEMENT_THEORY":"SGP4","PERIOD":"95.438","DECAY_DATE":null,"APOAPSIS":"541.497","RCS_SIZE":"LARGE","EPHEMERIS_TYPE":"0","REF_FRAME":"TEME","RA_OF_ASC_NODE":"343.9363","OBJECT_TYPE":"PAYLOAD","GP_ID":"215777276","FILE":"3627579","MEAN_MOTION_DDOT":"0.0000000000000","CLASSIFICATION_TYPE":"U","EPOCH":"2022-10-21T12:51:55.880352"},{"MEAN_MOTION_DOT":"0.00000401","SEMIMAJOR_AXIS":"6917.899","PERIAPSIS":"537.927","MEAN_MOTION":"15.08833942","TIME_SYSTEM":"UTC","REV_AT_EPOCH":"2918","CENTER_NAME":"EARTH","TLE_LINE2":"2 52343  53.2204 353.8806 0002656  27.8457 332.2677 15.08833942 29183","NORAD_CAT_ID":"52343","ELEMENT_SET_NO":"999","SITE":"AFETR","ECCENTRICITY":"0.00026560","INCLINATION":"53.2204","COUNTRY_CODE":"US","LAUNCH_DATE":"2022-04-29","OBJECT_ID":"2022-045N","MEAN_MOTION_DDOT":"0.0000000000000","CLASSIFICATION_TYPE":"U","EPOCH":"2022-10-21T13:11:48.139008","FILE":"3628413","RA_OF_ASC_NODE":"353.8806","OBJECT_TYPE":"PAYLOAD","GP_ID":"215844325","REF_FRAME":"TEME","DECAY_DATE":null,"APOAPSIS":"541.601","RCS_SIZE":"LARGE","EPHEMERIS_TYPE":"0","MEAN_ELEMENT_THEORY":"SGP4","PERIOD":"95.438","MEAN_ANOMALY":"332.2677","TLE_LINE1":"1 52343U 22045N   22294.54986272  .00000401  00000-0  43315-4 0  9997","BSTAR":"0.00004331500000","ARG_OF_PERICENTER":"27.8457","OBJECT_NAME":"STARLINK-3849"},{"REF_FRAME":"TEME","GP_ID":"215845077","OBJECT_TYPE":"PAYLOAD","RA_OF_ASC_NODE":"343.6728","FILE":"3628413","CLASSIFICATION_TYPE":"U","EPOCH":"2022-10-21T14:18:06.206688","MEAN_MOTION_DDOT":"0.0000000000000","OBJECT_NAME":"STARLINK-3851","ARG_OF_PERICENTER":"26.9835","BSTAR":"0.00011697000000","MEAN_ANOMALY":"333.1294","TLE_LINE1":"1 52344U 22045P   22294.59590517  .00001574  00000-0  11697-3 0  9995","PERIOD":"95.438","MEAN_ELEMENT_THEORY":"SGP4","EPHEMERIS_TYPE":"0","RCS_SIZE":"LARGE","APOAPSIS":"541.578","DECAY_DATE":null,"TLE_LINE2":"2 52344  53.2181 343.6728 0002643  26.9835 333.1294 15.08838557 29322","CENTER_NAME":"EARTH","REV_AT_EPOCH":"2932","TIME_SYSTEM":"UTC","PERIAPSIS":"537.921","SEMIMAJOR_AXIS":"6917.885","MEAN_MOTION":"15.08838557","MEAN_MOTION_DOT":"0.00001574","OBJECT_ID":"2022-045P","LAUNCH_DATE":"2022-04-29","COUNTRY_CODE":"US","INCLINATION":"53.2181","ECCENTRICITY":"0.00026430","SITE":"AFETR","NORAD_CAT_ID":"52344","ELEMENT_SET_NO":"999"},{"REF_FRAME":"TEME","GP_ID":"215779018","OBJECT_TYPE":"PAYLOAD","RA_OF_ASC_NODE":"344.1841","FILE":"3627579","CLASSIFICATION_TYPE":"U","EPOCH":"2022-10-21T11:32:26.138112","MEAN_MOTION_DDOT":"0.0000000000000","ARG_OF_PERICENTER":"39.2513","OBJECT_NAME":"STARLINK-3852","BSTAR":"0.00007761900000","TLE_LINE1":"1 52345U 22045Q   22294.48085808  .00000947  00000-0  77619-4 0  9996","MEAN_ANOMALY":"320.8644","PERIOD":"95.437","MEAN_ELEMENT_THEORY":"SGP4","RCS_SIZE":"LARGE","EPHEMERIS_TYPE":"0","DECAY_DATE":null,"APOAPSIS":"541.298","TLE_LINE2":"2 52345  53.2188 344.1841 0002275  39.2513 320.8644 15.08846999 29290","CENTER_NAME":"EARTH","REV_AT_EPOCH":"2929","TIME_SYSTEM":"UTC","PERIAPSIS":"538.150","SEMIMAJOR_AXIS":"6917.859","MEAN_MOTION":"15.08846999","MEAN_MOTION_DOT":"0.00000947","OBJECT_ID":"2022-045Q","LAUNCH_DATE":"2022-04-29","COUNTRY_CODE":"US","INCLINATION":"53.2188","ECCENTRICITY":"0.00022750","SITE":"AFETR","ELEMENT_SET_NO":"999","NORAD_CAT_ID":"52345"},{"LAUNCH_DATE":"2022-04-29","COUNTRY_CODE":"US","OBJECT_ID":"2022-045R","INCLINATION":"53.2173","SITE":"AFETR","ECCENTRICITY":"0.00023960","NORAD_CAT_ID":"52346","ELEMENT_SET_NO":"999","CENTER_NAME":"EARTH","TLE_LINE2":"2 52346  53.2173 343.3795 0002396  30.7714 329.3418 15.08842743 29338","REV_AT_EPOCH":"2933","PERIAPSIS":"538.079","MEAN_MOTION":"15.08842743","SEMIMAJOR_AXIS":"6917.872","TIME_SYSTEM":"UTC","MEAN_MOTION_DOT":"0.00001299","ARG_OF_PERICENTER":"30.7714","OBJECT_NAME":"STARLINK-3812","TLE_LINE1":"1 52346U 22045R   22294.66118327  .00001299  00000-0  99699-4 0  9993","MEAN_ANOMALY":"329.3418","BSTAR":"0.00009969900000","MEAN_ELEMENT_THEORY":"SGP4","PERIOD":"95.437","DECAY_DATE":null,"APOAPSIS":"541.395","RCS_SIZE":"LARGE","EPHEMERIS_TYPE":"0","REF_FRAME":"TEME","RA_OF_ASC_NODE":"343.3795","OBJECT_TYPE":"PAYLOAD","GP_ID":"215843577","FILE":"3628413","CLASSIFICATION_TYPE":"U","EPOCH":"2022-10-21T15:52:06.234528","MEAN_MOTION_DDOT":"0.0000000000000"},{"MEAN_MOTION_DOT":"0.00000181","SEMIMAJOR_AXIS":"6917.880","PERIAPSIS":"538.188","MEAN_MOTION":"15.08840263","TIME_SYSTEM":"UTC","REV_AT_EPOCH":"2931","CENTER_NAME":"EARTH","TLE_LINE2":"2 52347  53.2195 343.9226 0002250  37.7794 322.3355 15.08840263 29318","ELEMENT_SET_NO":"999","NORAD_CAT_ID":"52347","SITE":"AFETR","ECCENTRICITY":"0.00022500","INCLINATION":"53.2195","COUNTRY_CODE":"US","LAUNCH_DATE":"2022-04-29","OBJECT_ID":"2022-045S","MEAN_MOTION_DDOT":"0.0000000000000","CLASSIFICATION_TYPE":"U","EPOCH":"2022-10-21T12:57:13.698432","FILE":"3628413","RA_OF_ASC_NODE":"343.9226","OBJECT_TYPE":"PAYLOAD","GP_ID":"215843826","REF_FRAME":"TEME","DECAY_DATE":null,"APOAPSIS":"541.301","EPHEMERIS_TYPE":"0","RCS_SIZE":"LARGE","MEAN_ELEMENT_THEORY":"SGP4","PERIOD":"95.438","MEAN_ANOMALY":"322.3355","TLE_LINE1":"1 52347U 22045S   22294.53974188  .00000181  00000-0  29486-4 0  9991","BSTAR":"0.00002948600000","ARG_OF_PERICENTER":"37.7794","OBJECT_NAME":"STARLINK-3826"},{"LAUNCH_DATE":"2022-04-29","COUNTRY_CODE":"US","OBJECT_ID":"2022-045T","SITE":"AFETR","ECCENTRICITY":"0.00031040","NORAD_CAT_ID":"52348","ELEMENT_SET_NO":"999","INCLINATION":"53.2172","REV_AT_EPOCH":"2930","CENTER_NAME":"EARTH","TLE_LINE2":"2 52348  53.2172 344.3223 0003104  24.0635 336.0501 15.08837618 29302","MEAN_MOTION_DOT":"-0.00000854","PERIAPSIS":"537.605","SEMIMAJOR_AXIS":"6917.888","MEAN_MOTION":"15.08837618","TIME_SYSTEM":"UTC","MEAN_ANOMALY":"336.0501","TLE_LINE1":"1 52348U 22045T   22294.45511202 -.00000854  00000-0 -35505-4 0  9995","BSTAR":"-0.00003550500000","ARG_OF_PERICENTER":"24.0635","OBJECT_NAME":"STARLINK-3829","APOAPSIS":"541.900","DECAY_DATE":null,"EPHEMERIS_TYPE":"0","RCS_SIZE":"LARGE","MEAN_ELEMENT_THEORY":"SGP4","PERIOD":"95.438","OBJECT_TYPE":"PAYLOAD","RA_OF_ASC_NODE":"344.3223","GP_ID":"215778277","REF_FRAME":"TEME","EPOCH":"2022-10-21T10:55:21.678528","CLASSIFICATION_TYPE":"U","MEAN_MOTION_DDOT":"0.0000000000000","FILE":"3627579"},{"EPOCH":"2022-10-21T12:46:38.343936","CLASSIFICATION_TYPE":"U","MEAN_MOTION_DDOT":"0.0000000000000","FILE":"3628413","GP_ID":"215845328","RA_OF_ASC_NODE":"343.9557","OBJECT_TYPE":"PAYLOAD","REF_FRAME":"TEME","RCS_SIZE":"LARGE","EPHEMERIS_TYPE":"0","DECAY_DATE":null,"APOAPSIS":"541.786","PERIOD":"95.438","MEAN_ELEMENT_THEORY":"SGP4","BSTAR":"-0.00001909700000","TLE_LINE1":"1 52349U 22045U   22294.53238824 -.00000593  00000-0 -19097-4 0  9999","MEAN_ANOMALY":"336.0553","ARG_OF_PERICENTER":"24.0577","OBJECT_NAME":"STARLINK-3819","MEAN_MOTION_DOT":"-0.00000593","TIME_SYSTEM":"UTC","SEMIMAJOR_AXIS":"6917.880","PERIAPSIS":"537.704","MEAN_MOTION":"15.08840204","REV_AT_EPOCH":"2931","TLE_LINE2":"2 52349  53.2182 343.9557 0002950  24.0577 336.0553 15.08840204 29315","CENTER_NAME":"EARTH","SITE":"AFETR","ECCENTRICITY":"0.00029500","ELEMENT_SET_NO":"999","NORAD_CAT_ID":"52349","INCLINATION":"53.2182","OBJECT_ID":"2022-045U","LAUNCH_DATE":"2022-04-29","COUNTRY_CODE":"US"},{"OBJECT_ID":"2022-045V","LAUNCH_DATE":"2022-04-29","COUNTRY_CODE":"US","INCLINATION":"53.2163","SITE":"AFETR","ECCENTRICITY":"0.00025530","NORAD_CAT_ID":"52350","ELEMENT_SET_NO":"999","TLE_LINE2":"2 52350  53.2163 344.0374 0002553  30.3651 329.7489 15.08838005 29310","CENTER_NAME":"EARTH","REV_AT_EPOCH":"2931","TIME_SYSTEM":"UTC","PERIAPSIS":"537.985","MEAN_MOTION":"15.08838005","SEMIMAJOR_AXIS":"6917.886","MEAN_MOTION_DOT":"-0.00001075","ARG_OF_PERICENTER":"30.3651","OBJECT_NAME":"STARLINK-3754","BSTAR":"-0.00004943700000","MEAN_ANOMALY":"329.7489","TLE_LINE1":"1 52350U 22045V   22294.51766939 -.00001075  00000-0 -49437-4 0  9999","PERIOD":"95.438","MEAN_ELEMENT_THEORY":"SGP4","RCS_SIZE":"LARGE","EPHEMERIS_TYPE":"0","APOAPSIS":"541.518","DECAY_DATE":null,"REF_FRAME":"TEME","GP_ID":"215844077","OBJECT_TYPE":"PAYLOAD","RA_OF_ASC_NODE":"344.0374","FILE":"3628413","CLASSIFICATION_TYPE":"U","EPOCH":"2022-10-21T12:25:26.635296","MEAN_MOTION_DDOT":"0.0000000000000"}];
